{
    "links": {
        "self": "http://www.neowsapp.com/rest/v1/neo/3719181?api_key=iIulBulltgU6a56xZRHN4H3l9WmuAYTsLGpBGhQ2"
    },
    "id": "3719181",
    "neo_reference_id": "3719181",
    "name": "(2015 JB1)",
    "designation": "2015 JB1",
    "nasa_jpl_url": "http://ssd.jpl.nasa.gov/sbdb.cgi?sstr=3719181",
    "absolute_magnitude_h": 24.3,
    "estimated_diameter": {
        "kilometers": {
            "estimated_diameter_min": 0.0366906138,
            "estimated_diameter_max": 0.0820427065
        },
        "meters": {
            "estimated_diameter_min": 36.6906137531,
            "estimated_diameter_max": 82.0427064882
        },
        "miles": {
            "estimated_diameter_min": 0.0227984834,
            "estimated_diameter_max": 0.0509789586
        },
        "feet": {
            "estimated_diameter_min": 120.3760332259,
            "estimated_diameter_max": 269.1689931548
        }
    },
    "is_potentially_hazardous_asteroid": false,
    "close_approach_data": [
        {
            "close_approach_date": "2015-04-30",
            "close_approach_date_full": "2015-Apr-30 22:11",
            "epoch_date_close_approach": 1430431860000,
            "relative_velocity": {
                "kilometers_per_second": "6.0237500213",
                "kilometers_per_hour": "21685.50007665",
                "miles_per_hour": "13474.5264226273"
            },
            "miss_distance": {
                "astronomical": "0.1374348627",
                "lunar": "53.4621615903",
                "kilometers": "20559962.723662449",
                "miles": "12775368.4347778362"
            },
            "orbiting_body": "Earth"
        }
    ],
    "orbital_data": {
        "orbit_id": "8",
        "orbit_determination_date": "2017-04-06 08:33:49",
        "first_observation_date": "2015-05-11",
        "last_observation_date": "2015-05-23",
        "data_arc_in_days": 12,
        "observations_used": 44,
        "orbit_uncertainty": "7",
        "minimum_orbit_intersection": ".134322",
        "jupiter_tisserand_invariant": "4.640",
        "epoch_osculation": "2459000.5",
        "eccentricity": ".2081212449119747",
        "semi_major_axis": "1.432213306064883",
        "inclination": "11.08341862893781",
        "ascending_node_longitude": "227.1832180883512",
        "orbital_period": "626.0513887167618",
        "perihelion_distance": "1.134139289827165",
        "perihelion_argument": "339.4079939711804",
        "aphelion_distance": "1.730287322302602",
        "perihelion_time": "2459008.371232487092",
        "mean_anomaly": "355.4737841870115",
        "mean_motion": ".575032667426717",
        "equinox": "J2000",
        "orbit_class": {
            "orbit_class_type": "AMO",
            "orbit_class_description": "Near-Earth asteroid orbits similar to that of 1221 Amor",
            "orbit_class_range": "1.017 AU < q (perihelion) < 1.3 AU"
        }
    },
    "is_sentry_object": false
}